EUTELSAT 7A             
1 28187U 04008A   25230.79267810  .00000087  00000+0  00000+0 0  9993
2 28187   5.0573  75.6246 0000881 100.9582 296.9681  1.00272514 78323
EUTELSAT 174A           
1 28924U 05052A   25230.85525169 -.00000006  00000+0  00000+0 0  9995
2 28924   3.4481  80.3013 0005982  71.2936 297.7128  1.00272589 49300
EUTELSAT HOTBIRD 13B    
1 29270U 06032A   25230.92405763  .00000141  00000+0  00000+0 0  9993
2 29270   0.8758  85.6402 0003817  65.9544 181.6910  1.00274749 44274
EUTELSAT HOTBIRD 13C    
1 33459U 08065A   25230.87683638 -.00000115  00000+0  00000+0 0  9990
2 33459   2.1682  82.8146 0003700  87.5270 100.2740  1.00271163 61218
EUTELSAT 36B            
1 36101U 09065A   25230.90211321  .00000099  00000+0  00000+0 0  9998
2 36101   0.0550 339.0529 0005627 172.8557 190.8175  1.00270693 57673
EUTELSAT KA-SAT 9A      
1 37258U 10069A   25230.82249155  .00000048  00000+0  00000+0 0  9999
2 37258   0.0523 320.4116 0004503 170.7918 141.3046  1.00272093 53785
EUTELSAT 16A            
1 37836U 11057A   25230.82387822  .00000091  00000+0  00000+0 0  9991
2 37836   0.0660  11.4593 0005467 135.4558 133.0988  1.00273638  4294
